STARLINK-35701          
1 67118U 25299S   26141.23541681  .00009200  00000+0  34340-3 0  9991
2 67118  43.0020 119.0704 0000792 270.1780  89.8981 15.27583360 24211
STARLINK-36179          
1 67119U 25299T   26141.24569809  .00012690  00000+0  46979-3 0  9993
2 67119  43.0015 119.1529 0000655 271.2855  88.7921 15.27586266 24215
STARLINK-36217          
1 67120U 25299U   26140.03290989  .00017772  00000+0  65354-3 0  9995
2 67120  43.0011 126.3902 0001487 272.5718  87.4964 15.27592419 24023
STARLINK-36124          
1 67121U 25299V   26140.67265481  .00014486  00000+0  53454-3 0  9992
2 67121  43.0037 122.5927 0001577 270.6154  89.4517 15.27601369 24122
STARLINK-36188          
1 67122U 25299W   26141.20344223  .00010814  00000+0  40190-3 0  9999
2 67122  43.0026 119.6988 0002059 285.6226  74.4398 15.27580828 24203
STARLINK-36151          
1 67123U 25299X   26141.23797982  .00014497  00000+0  53493-3 0  9998
2 67123  43.0008 119.0922 0001282 281.0475  79.0232 15.27601624 24216
STARLINK-36195          
1 67124U 25299Y   26141.01998387  .00010875  00000+0  40410-3 0  9998
2 67124  42.9992 120.0355 0001528 268.4756  91.5921 15.27583551 24181
STARLINK-36219          
1 67125U 25299Z   26140.98929329  .00008295  00000+0  31056-3 0  9993
2 67125  42.9981 120.6663 0000530 275.1555  84.9236 15.27584935 24173
STARLINK-36223          
1 67126U 25299AA  26141.24315000  .00014913  00000+0  55036-3 0  9997
2 67126  43.0022 119.1258 0002563 291.0074  69.0504 15.27578474 24214
STARLINK-36164          
1 67127U 25299AB  26140.64051367  .00013488  00000+0  49860-3 0  9998
2 67127  43.0002 122.3465 0001724 275.8226  84.2429 15.27590328 24123
STARLINK-35685          
1 67128U 25299AC  26140.25076691  .00010898  00000+0  40498-3 0  9993
2 67128  43.0017 124.5866 0001272 271.9672  88.1034 15.27577873 24067
STARLINK-36214          
1 67129U 25299AD  26140.95089708  .00015140  00000+0  55815-3 0  9998
2 67129  43.0003 121.2363 0001554 208.2523 151.8244 15.27604630 24164
STARLINK-36194          
1 67130U 25299AE  26140.98543762  .00004637  00000+0  17795-3 0  9992
2 67130  43.0016 120.6387 0001227 267.2459  92.8252 15.27576015 24178
ZIYUAN 3-04 (ZY 3-04)   
1 67131U 25300A   26141.26151184  .00002895  00000+0  13215-3 0  9998
2 67131  97.4734 219.3625 0007478  49.8864 310.3026 15.21391711 23749
KUIPER-00144            
1 67133U 25301A   26141.12723913  .00001076  00000+0  18394-3 0  9994
2 67133  51.9006  94.9245 0000961  46.2361 313.8680 14.76413766 24600
KUIPER-00164            
1 67134U 25301B   26141.14988726  .00001206  00000+0  20208-3 0  9994
2 67134  51.9031 106.3011 0001165 131.9079 228.1981 14.76486126 24627
KUIPER-00175            
1 67135U 25301C   26141.17562695  .00002662  00000+0  28275-3 0  9990
2 67135  51.8950  93.9490 0000960  42.6273 317.4769 14.92169265 24698
KUIPER-00179            
1 67136U 25301D   26141.08476831 -.00000222  00000+0 -59551-7 0  9994
2 67136  51.8979 105.4646 0000732  86.3740 273.7306 14.79931046 24637
KUIPER-00181            
1 67137U 25301E   26141.20639365  .00001576  00000+0  23567-3 0  9997
2 67137  51.9020 117.4459 0001514  71.4536 288.6591 14.79935884 24453
KUIPER-00183            
1 67138U 25301F   26141.08588370  .00002634  00000+0  27748-3 0  9994
2 67138  51.8954  95.2160 0008883 312.1443  47.8769 14.92550101 24765
KUIPER-00184            
1 67139U 25301G   26141.09550231  .00001130  00000+0  19147-3 0  9995
2 67139  51.8987 100.1250 0001817 112.2109 247.9044 14.76445715 24806
KUIPER-00186            
1 67140U 25301H   26141.24007074 -.00010595  00000+0 -13606-2 0  9996
2 67140  51.9016 117.3070 0000684 141.6510 218.4501 14.80006136 24306
KUIPER-00187            
1 67141U 25301J   26141.23740912  .00001757  00000+0  25941-3 0  9995
2 67141  51.9019 119.8383 0000568  86.8656 273.2371 14.79927293 24269
KUIPER-00188            
1 67142U 25301K   26141.17049601  .00037287  00000+0  52354-2 0  9990
2 67142  51.9026  87.7162 0001273 139.7295 220.3761 14.77066960 24705
KUIPER-00191            
1 67143U 25301L   26141.21181033  .00001754  00000+0  25903-3 0  9993
2 67143  51.9002 112.4527 0000711  61.7611 298.3423 14.79939015 24390
KUIPER-00196            
1 67144U 25301M   26141.25002315  .00060379  00000+0  20457-2 0  9999
2 67144  51.8740  73.7746 0001770 246.0748 237.0103 15.29988490  4329
KUIPER-00204            
1 67145U 25301N   26141.25002315  .00038636  00000+0  24338-2 0  9993
2 67145  51.8930  86.2145 0001190   3.1600 174.0954 15.08791087  5111
KUIPER-00210            
1 67146U 25301P   26141.11046214  .00001620  00000+0  24141-3 0  9991
2 67146  51.8989 112.8568 0000692  66.0182 294.0853 14.79941067 24529
KUIPER-00221            
1 67147U 25301Q   26141.20365218  .00001556  00000+0  23304-3 0  9998
2 67147  51.9002 119.9604 0000638  64.7187 295.3841 14.79934983 24267
KUIPER-00232            
1 67148U 25301R   26141.11836741 -.00008062  00000+0 -10307-2 0  9992
2 67148  51.8983 105.3707 0001221  81.1587 278.9513 14.79897282 24458
