OBJECT_NAME,OBJECT_ID,EPOCH,MEAN_MOTION,ECCENTRICITY,INCLINATION,RA_OF_ASC_NODE,ARG_OF_PERICENTER,MEAN_ANOMALY,EPHEMERIS_TYPE,CLASSIFICATION_TYPE,NORAD_CAT_ID,ELEMENT_SET_NO,REV_AT_EPOCH,BSTAR,MEAN_MOTION_DOT,MEAN_MOTION_DDOT
STARLINK-35701,2025-299S,2026-05-21T05:39:00.012384,15.27583360,.00007925,43.0020,119.0704,270.1780,89.8981,0,U,67118,999,2421,.34339622E-3,.92E-4,0
STARLINK-36179,2025-299T,2026-05-21T05:53:48.314976,15.27586266,.00006559,43.0015,119.1529,271.2855,88.7921,0,U,67119,999,2421,.46978904E-3,.1269E-3,0
STARLINK-36217,2025-299U,2026-05-20T00:47:23.414496,15.27592419,.00014879,43.0011,126.3902,272.5718,87.4964,0,U,67120,999,2402,.65353825E-3,.17772E-3,0
STARLINK-36124,2025-299V,2026-05-20T16:08:37.375584,15.27601369,.00015776,43.0037,122.5927,270.6154,89.4517,0,U,67121,999,2412,.53453678E-3,.14486E-3,0
STARLINK-36188,2025-299W,2026-05-21T04:52:57.408672,15.27580828,.00020598,43.0026,119.6988,285.6226,74.4398,0,U,67122,999,2420,.40190184E-3,.10814E-3,0
STARLINK-36151,2025-299X,2026-05-21T05:42:41.456448,15.27601624,.00012827,43.0008,119.0922,281.0475,79.0232,0,U,67123,999,2421,.53493124E-3,.14497E-3,0
STARLINK-36195,2025-299Y,2026-05-21T00:28:46.606368,15.27583551,.0001528,42.9992,120.0355,268.4756,91.5921,0,U,67124,999,2418,.40409643E-3,.10875E-3,0
STARLINK-36219,2025-299Z,2026-05-20T23:44:34.940256,15.27584935,.00005301,42.9981,120.6663,275.1555,84.9236,0,U,67125,999,2417,.31056466E-3,.8295E-4,0
STARLINK-36223,2025-299AA,2026-05-21T05:50:08.160000,15.27578474,.00025638,43.0022,119.1258,291.0074,69.0504,0,U,67126,999,2421,.55035564E-3,.14913E-3,0
STARLINK-36164,2025-299AB,2026-05-20T15:22:20.381088,15.27590328,.00017245,43.0002,122.3465,275.8226,84.2429,0,U,67127,999,2412,.49859843E-3,.13488E-3,0
STARLINK-35685,2025-299AC,2026-05-20T06:01:06.261024,15.27577873,.0001272,43.0017,124.5866,271.9672,88.1034,0,U,67128,999,2406,.40498E-3,.10898E-3,0
STARLINK-36214,2025-299AD,2026-05-20T22:49:17.507712,15.27604630,.00015545,43.0003,121.2363,208.2523,151.8244,0,U,67129,999,2416,.55815225E-3,.1514E-3,0
STARLINK-36194,2025-299AE,2026-05-20T23:39:01.810368,15.27576015,.0001227,43.0016,120.6387,267.2459,92.8252,0,U,67130,999,2417,.17794925E-3,.4637E-4,0
ZIYUAN 3-04 (ZY 3-04),2025-300A,2026-05-21T06:16:34.622976,15.21391711,.00074784,97.4734,219.3625,49.8864,310.3026,0,U,67131,999,2374,.13215371E-3,.2895E-4,0
KUIPER-00144,2025-301A,2026-05-21T03:03:13.460832,14.76413766,.00009616,51.9006,94.9245,46.2361,313.8680,0,U,67133,999,2460,.18393504E-3,.1076E-4,0
KUIPER-00164,2025-301B,2026-05-21T03:35:50.259264,14.76486126,.00011651,51.9031,106.3011,131.9079,228.1981,0,U,67134,999,2462,.20208254E-3,.1206E-4,0
KUIPER-00175,2025-301C,2026-05-21T04:12:54.168480,14.92169265,.00009602,51.8950,93.9490,42.6273,317.4769,0,U,67135,999,2469,.28275236E-3,.2662E-4,0
KUIPER-00179,2025-301D,2026-05-21T02:02:03.981984,14.79931046,.00007322,51.8979,105.4646,86.3740,273.7306,0,U,67136,999,2463,-.59551E-7,-.222E-5,0
KUIPER-00181,2025-301E,2026-05-21T04:57:12.411360,14.79935884,.00015146,51.9020,117.4459,71.4536,288.6591,0,U,67137,999,2445,.23566792E-3,.1576E-4,0
KUIPER-00183,2025-301F,2026-05-21T02:03:40.351680,14.92550101,.00088836,51.8954,95.2160,312.1443,47.8769,0,U,67138,999,2476,.27748156E-3,.2634E-4,0
KUIPER-00184,2025-301G,2026-05-21T02:17:31.399584,14.76445715,.00018171,51.8987,100.1250,112.2109,247.9044,0,U,67139,999,2480,.19147083E-3,.113E-4,0
KUIPER-00186,2025-301H,2026-05-21T05:45:42.111936,14.80006136,.0000684,51.9016,117.3070,141.6510,218.4501,0,U,67140,999,2430,-.13605689E-2,-.10595E-3,0
KUIPER-00187,2025-301J,2026-05-21T05:41:52.147968,14.79927293,.00005686,51.9019,119.8383,86.8656,273.2371,0,U,67141,999,2426,.25940671E-3,.1757E-4,0
KUIPER-00188,2025-301K,2026-05-21T04:05:30.855264,14.77066960,.00012737,51.9026,87.7162,139.7295,220.3761,0,U,67142,999,2470,.52353516E-2,.37287E-3,0
KUIPER-00191,2025-301L,2026-05-21T05:05:00.412512,14.79939015,.0000711,51.9002,112.4527,61.7611,298.3423,0,U,67143,999,2439,.25903399E-3,.1754E-4,0
KUIPER-00196,2025-301M,2026-05-21T06:00:02.000160,15.29988490,.00017708,51.8740,73.7746,246.0748,237.0103,0,U,67144,999,432,.20456883E-2,.60379E-3,0
KUIPER-00204,2025-301N,2026-05-21T06:00:02.000160,15.08791087,.00011907,51.8930,86.2145,3.1600,174.0954,0,U,67145,999,511,.24337856E-2,.38636E-3,0
KUIPER-00210,2025-301P,2026-05-21T02:39:03.928896,14.79941067,.00006922,51.8989,112.8568,66.0182,294.0853,0,U,67146,999,2452,.24141307E-3,.162E-4,0
KUIPER-00221,2025-301Q,2026-05-21T04:53:15.548352,14.79934983,.00006389,51.9002,119.9604,64.7187,295.3841,0,U,67147,999,2426,.23304258E-3,.1556E-4,0
KUIPER-00232,2025-301R,2026-05-21T02:50:26.944224,14.79897282,.0001221,51.8983,105.3707,81.1587,278.9513,0,U,67148,999,2445,-.10306728E-2,-.8062E-4,0
